<?xml version="1.0" encoding="UTF-8"?>
<ndm xmlns:xsi="http://www.w3.org/2001/XMLSchema-instance" xsi:noNamespaceSchemaLocation="https://sanaregistry.org/r/ndmxml_unqualified/ndmxml-2.0.0-master-2.0.xsd">
<omm id="CCSDS_OMM_VERS" version="2.0">
<header><CREATION_DATE/><ORIGINATOR/></header><body><segment><metadata><OBJECT_NAME>KUIPER-00079</OBJECT_NAME><OBJECT_ID>2025-151L</OBJECT_ID><CENTER_NAME>EARTH</CENTER_NAME><REF_FRAME>TEME</REF_FRAME><TIME_SYSTEM>UTC</TIME_SYSTEM><MEAN_ELEMENT_THEORY>SGP4</MEAN_ELEMENT_THEORY></metadata><data><meanElements><EPOCH>2025-11-25T00:00:04.000320</EPOCH><MEAN_MOTION>14.80132670</MEAN_MOTION><ECCENTRICITY>.00116489</ECCENTRICITY><INCLINATION>51.8991</INCLINATION><RA_OF_ASC_NODE>43.5245</RA_OF_ASC_NODE><ARG_OF_PERICENTER>252.8792</ARG_OF_PERICENTER><MEAN_ANOMALY>345.4105</MEAN_ANOMALY></meanElements><tleParameters><EPHEMERIS_TYPE>0</EPHEMERIS_TYPE><CLASSIFICATION_TYPE>U</CLASSIFICATION_TYPE><NORAD_CAT_ID>64826</NORAD_CAT_ID><ELEMENT_SET_NO>999</ELEMENT_SET_NO><REV_AT_EPOCH>357</REV_AT_EPOCH><BSTAR>.18535912E-2</BSTAR><MEAN_MOTION_DOT>.14019E-3</MEAN_MOTION_DOT><MEAN_MOTION_DDOT>0</MEAN_MOTION_DDOT></tleParameters></data></segment></body></omm>
<omm id="CCSDS_OMM_VERS" version="2.0">
<header><CREATION_DATE/><ORIGINATOR/></header><body><segment><metadata><OBJECT_NAME>KUIPER-00080</OBJECT_NAME><OBJECT_ID>2025-151M</OBJECT_ID><CENTER_NAME>EARTH</CENTER_NAME><REF_FRAME>TEME</REF_FRAME><TIME_SYSTEM>UTC</TIME_SYSTEM><MEAN_ELEMENT_THEORY>SGP4</MEAN_ELEMENT_THEORY></metadata><data><meanElements><EPOCH>2025-11-24T13:58:20.987904</EPOCH><MEAN_MOTION>14.79913219</MEAN_MOTION><ECCENTRICITY>.00051486</ECCENTRICITY><INCLINATION>51.9002</INCLINATION><RA_OF_ASC_NODE>45.3585</RA_OF_ASC_NODE><ARG_OF_PERICENTER>267.3807</ARG_OF_PERICENTER><MEAN_ANOMALY>92.6566</MEAN_ANOMALY></meanElements><tleParameters><EPHEMERIS_TYPE>0</EPHEMERIS_TYPE><CLASSIFICATION_TYPE>U</CLASSIFICATION_TYPE><NORAD_CAT_ID>64827</NORAD_CAT_ID><ELEMENT_SET_NO>999</ELEMENT_SET_NO><REV_AT_EPOCH>1974</REV_AT_EPOCH><BSTAR>-.13845007E-2</BSTAR><MEAN_MOTION_DOT>-.10757E-3</MEAN_MOTION_DOT><MEAN_MOTION_DDOT>0</MEAN_MOTION_DDOT></tleParameters></data></segment></body></omm>
<omm id="CCSDS_OMM_VERS" version="2.0">
<header><CREATION_DATE/><ORIGINATOR/></header><body><segment><metadata><OBJECT_NAME>KUIPER-00082</OBJECT_NAME><OBJECT_ID>2025-151N</OBJECT_ID><CENTER_NAME>EARTH</CENTER_NAME><REF_FRAME>TEME</REF_FRAME><TIME_SYSTEM>UTC</TIME_SYSTEM><MEAN_ELEMENT_THEORY>SGP4</MEAN_ELEMENT_THEORY></metadata><data><meanElements><EPOCH>2025-11-24T15:06:21.679776</EPOCH><MEAN_MOTION>14.79976563</MEAN_MOTION><ECCENTRICITY>.0004672</ECCENTRICITY><INCLINATION>51.9033</INCLINATION><RA_OF_ASC_NODE>32.6602</RA_OF_ASC_NODE><ARG_OF_PERICENTER>284.3872</ARG_OF_PERICENTER><MEAN_ANOMALY>75.6572</MEAN_ANOMALY></meanElements><tleParameters><EPHEMERIS_TYPE>0</EPHEMERIS_TYPE><CLASSIFICATION_TYPE>U</CLASSIFICATION_TYPE><NORAD_CAT_ID>64828</NORAD_CAT_ID><ELEMENT_SET_NO>999</ELEMENT_SET_NO><REV_AT_EPOCH>1992</REV_AT_EPOCH><BSTAR>.50244733E-3</BSTAR><MEAN_MOTION_DOT>.3615E-4</MEAN_MOTION_DOT><MEAN_MOTION_DDOT>0</MEAN_MOTION_DDOT></tleParameters></data></segment></body></omm>
<omm id="CCSDS_OMM_VERS" version="2.0">
<header><CREATION_DATE/><ORIGINATOR/></header><body><segment><metadata><OBJECT_NAME>KUIPER-00083</OBJECT_NAME><OBJECT_ID>2025-151P</OBJECT_ID><CENTER_NAME>EARTH</CENTER_NAME><REF_FRAME>TEME</REF_FRAME><TIME_SYSTEM>UTC</TIME_SYSTEM><MEAN_ELEMENT_THEORY>SGP4</MEAN_ELEMENT_THEORY></metadata><data><meanElements><EPOCH>2025-11-24T14:54:58.978944</EPOCH><MEAN_MOTION>14.79853711</MEAN_MOTION><ECCENTRICITY>.00104229</ECCENTRICITY><INCLINATION>51.9029</INCLINATION><RA_OF_ASC_NODE>40.1946</RA_OF_ASC_NODE><ARG_OF_PERICENTER>254.3892</ARG_OF_PERICENTER><MEAN_ANOMALY>105.5921</MEAN_ANOMALY></meanElements><tleParameters><EPHEMERIS_TYPE>0</EPHEMERIS_TYPE><CLASSIFICATION_TYPE>U</CLASSIFICATION_TYPE><NORAD_CAT_ID>64829</NORAD_CAT_ID><ELEMENT_SET_NO>999</ELEMENT_SET_NO><REV_AT_EPOCH>2100</REV_AT_EPOCH><BSTAR>-.15843242E-2</BSTAR><MEAN_MOTION_DOT>-.12268E-3</MEAN_MOTION_DOT><MEAN_MOTION_DDOT>0</MEAN_MOTION_DDOT></tleParameters></data></segment></body></omm>
<omm id="CCSDS_OMM_VERS" version="2.0">
<header><CREATION_DATE/><ORIGINATOR/></header><body><segment><metadata><OBJECT_NAME>KUIPER-00084</OBJECT_NAME><OBJECT_ID>2025-151Q</OBJECT_ID><CENTER_NAME>EARTH</CENTER_NAME><REF_FRAME>TEME</REF_FRAME><TIME_SYSTEM>UTC</TIME_SYSTEM><MEAN_ELEMENT_THEORY>SGP4</MEAN_ELEMENT_THEORY></metadata><data><meanElements><EPOCH>2025-11-24T14:39:12.988800</EPOCH><MEAN_MOTION>14.79922597</MEAN_MOTION><ECCENTRICITY>.00116924</ECCENTRICITY><INCLINATION>51.9007</INCLINATION><RA_OF_ASC_NODE>50.2268</RA_OF_ASC_NODE><ARG_OF_PERICENTER>224.9620</ARG_OF_PERICENTER><MEAN_ANOMALY>135.0396</MEAN_ANOMALY></meanElements><tleParameters><EPHEMERIS_TYPE>0</EPHEMERIS_TYPE><CLASSIFICATION_TYPE>U</CLASSIFICATION_TYPE><NORAD_CAT_ID>64830</NORAD_CAT_ID><ELEMENT_SET_NO>999</ELEMENT_SET_NO><REV_AT_EPOCH>1967</REV_AT_EPOCH><BSTAR>-.34510334E-3</BSTAR><MEAN_MOTION_DOT>-.2856E-4</MEAN_MOTION_DOT><MEAN_MOTION_DDOT>0</MEAN_MOTION_DDOT></tleParameters></data></segment></body></omm>
<omm id="CCSDS_OMM_VERS" version="2.0">
<header><CREATION_DATE/><ORIGINATOR/></header><body><segment><metadata><OBJECT_NAME>KUIPER-00085</OBJECT_NAME><OBJECT_ID>2025-151R</OBJECT_ID><CENTER_NAME>EARTH</CENTER_NAME><REF_FRAME>TEME</REF_FRAME><TIME_SYSTEM>UTC</TIME_SYSTEM><MEAN_ELEMENT_THEORY>SGP4</MEAN_ELEMENT_THEORY></metadata><data><meanElements><EPOCH>2025-11-24T20:46:44.695776</EPOCH><MEAN_MOTION>14.79941484</MEAN_MOTION><ECCENTRICITY>.00072104</ECCENTRICITY><INCLINATION>51.9037</INCLINATION><RA_OF_ASC_NODE>31.6269</RA_OF_ASC_NODE><ARG_OF_PERICENTER>263.5524</ARG_OF_PERICENTER><MEAN_ANOMALY>96.4618</MEAN_ANOMALY></meanElements><tleParameters><EPHEMERIS_TYPE>0</EPHEMERIS_TYPE><CLASSIFICATION_TYPE>U</CLASSIFICATION_TYPE><NORAD_CAT_ID>64831</NORAD_CAT_ID><ELEMENT_SET_NO>999</ELEMENT_SET_NO><REV_AT_EPOCH>1995</REV_AT_EPOCH><BSTAR>-.3997399E-3</BSTAR><MEAN_MOTION_DOT>-.3271E-4</MEAN_MOTION_DOT><MEAN_MOTION_DDOT>0</MEAN_MOTION_DDOT></tleParameters></data></segment></body></omm>
<omm id="CCSDS_OMM_VERS" version="2.0">
<header><CREATION_DATE/><ORIGINATOR/></header><body><segment><metadata><OBJECT_NAME>KUIPER-00086</OBJECT_NAME><OBJECT_ID>2025-151S</OBJECT_ID><CENTER_NAME>EARTH</CENTER_NAME><REF_FRAME>TEME</REF_FRAME><TIME_SYSTEM>UTC</TIME_SYSTEM><MEAN_ELEMENT_THEORY>SGP4</MEAN_ELEMENT_THEORY></metadata><data><meanElements><EPOCH>2025-11-24T14:02:52.245024</EPOCH><MEAN_MOTION>14.79880669</MEAN_MOTION><ECCENTRICITY>.00108065</ECCENTRICITY><INCLINATION>51.9021</INCLINATION><RA_OF_ASC_NODE>42.8614</RA_OF_ASC_NODE><ARG_OF_PERICENTER>250.3218</ARG_OF_PERICENTER><MEAN_ANOMALY>109.6578</MEAN_ANOMALY></meanElements><tleParameters><EPHEMERIS_TYPE>0</EPHEMERIS_TYPE><CLASSIFICATION_TYPE>U</CLASSIFICATION_TYPE><NORAD_CAT_ID>64832</NORAD_CAT_ID><ELEMENT_SET_NO>999</ELEMENT_SET_NO><REV_AT_EPOCH>1977</REV_AT_EPOCH><BSTAR>.67489636E-2</BSTAR><MEAN_MOTION_DOT>.51604E-3</MEAN_MOTION_DOT><MEAN_MOTION_DDOT>0</MEAN_MOTION_DDOT></tleParameters></data></segment></body></omm>
<omm id="CCSDS_OMM_VERS" version="2.0">
<header><CREATION_DATE/><ORIGINATOR/></header><body><segment><metadata><OBJECT_NAME>KUIPER-00087</OBJECT_NAME><OBJECT_ID>2025-151T</OBJECT_ID><CENTER_NAME>EARTH</CENTER_NAME><REF_FRAME>TEME</REF_FRAME><TIME_SYSTEM>UTC</TIME_SYSTEM><MEAN_ELEMENT_THEORY>SGP4</MEAN_ELEMENT_THEORY></metadata><data><meanElements><EPOCH>2025-11-24T16:06:42.130080</EPOCH><MEAN_MOTION>14.79948693</MEAN_MOTION><ECCENTRICITY>.00008319</ECCENTRICITY><INCLINATION>51.9001</INCLINATION><RA_OF_ASC_NODE>24.9759</RA_OF_ASC_NODE><ARG_OF_PERICENTER>192.9493</ARG_OF_PERICENTER><MEAN_ANOMALY>167.1449</MEAN_ANOMALY></meanElements><tleParameters><EPHEMERIS_TYPE>0</EPHEMERIS_TYPE><CLASSIFICATION_TYPE>U</CLASSIFICATION_TYPE><NORAD_CAT_ID>64833</NORAD_CAT_ID><ELEMENT_SET_NO>999</ELEMENT_SET_NO><REV_AT_EPOCH>2002</REV_AT_EPOCH><BSTAR>-.13179742E-2</BSTAR><MEAN_MOTION_DOT>-.10257E-3</MEAN_MOTION_DOT><MEAN_MOTION_DDOT>0</MEAN_MOTION_DDOT></tleParameters></data></segment></body></omm>

</ndm>
