KUIPER-00079            
1 64826U 25151L   25329.00004630  .00014019  00000+0  18536-2 0  9993
2 64826  51.8991  43.5245 0011648 252.8792 345.4105 14.80132670  3578
KUIPER-00080            
1 64827U 25151M   25328.58218736 -.00010757  00000+0 -13845-2 0  9995
2 64827  51.9002  45.3585 0005148 267.3807  92.6566 14.79913219 19748
KUIPER-00082            
1 64828U 25151N   25328.62941759  .00003615  00000+0  50245-3 0  9998
2 64828  51.9033  32.6602 0004672 284.3872  75.6572 14.79976563 19923
KUIPER-00083            
1 64829U 25151P   25328.62151596 -.00012268  00000+0 -15843-2 0  9991
2 64829  51.9029  40.1946 0010422 254.3892 105.5921 14.79853711 21005
KUIPER-00084            
1 64830U 25151Q   25328.61056700 -.00002856  00000+0 -34510-3 0  9998
2 64830  51.9007  50.2268 0011692 224.9620 135.0396 14.79922597 19677
KUIPER-00085            
1 64831U 25151R   25328.86579509 -.00003271  00000+0 -39974-3 0  9994
2 64831  51.9037  31.6269 0007210 263.5524  96.4618 14.79941484 19952
KUIPER-00086            
1 64832U 25151S   25328.58532691  .00051604  00000+0  67490-2 0  9999
2 64832  51.9021  42.8614 0010806 250.3218 109.6578 14.79880669 19772
KUIPER-00087            
1 64833U 25151T   25328.67132095 -.00010257  00000+0 -13180-2 0  9992
2 64833  51.9001  24.9759 0000831 192.9493 167.1449 14.79948693 20023
